NORAD_CAT_ID,OBJECT_NAME,OBJECT_TYPE,EPOCH,MEAN_MOTION,ECCENTRICITY,INCLINATION,RA_OF_ASC_NODE,ARG_OF_PERICENTER,MEAN_ANOMALY,BSTAR,MEAN_MOTION_DOT,MEAN_MOTION_DDOT,TLE_LINE0,TLE_LINE1,TLE_LINE2,SEMIMAJOR_AXIS,PERIOD,APOGEE,PERIGEE,DECAYED
52708.0,STARLINK-3962,PAYLOAD,2022-05-24 16:00:00,15.80597096,0.0001485,53.2162,267.0498,55.7386,143.2375,-0.0039992,-0.00718413,0.0,0 STARLINK-3962,1 52708U 22053BE  22144.66667824 -.00718413  00000-0 -39992-2 0  9992,2 52708  53.2162 267.0498 0001485  55.7386 143.2375 15.80597096  1300,6706.888000000001,91.105,329.749,327.75699999999995,0.0
52708.0,STARLINK-3962,PAYLOAD,2022-05-24 22:00:00,15.80249441,0.0001383,53.2171,265.7996,47.8323,134.3322,-0.0050714,-0.00879576,0.0,0 STARLINK-3962,1 52708U 22053BE  22144.91667824 -.00879576  00000-0 -50714-2 0  9993,2 52708  53.2171 265.7996 0001383  47.8323 134.3322 15.80249441  1309,6707.871999999999,91.125,330.664,328.809,0.0
52708.0,STARLINK-3962,PAYLOAD,2022-05-25 04:00:00,15.79773962,0.0001412,53.2174,264.5483,45.0761,119.9199,-0.0051391,-0.00872702,0.0,0 STARLINK-3962,1 52708U 22053BE  22145.16667824 -.00872702  00000-0 -51391-2 0  9997,2 52708  53.2174 264.5483 0001412  45.0761 119.9199 15.79773962  1375,6709.218000000003,91.152,332.03,330.135,0.0
52708.0,STARLINK-3962,PAYLOAD,2022-05-25 14:00:01,15.78991069,0.0001441999999999,53.2176,262.4691,36.3157,339.1155,-0.0053692,-0.00878978,0.0,0 STARLINK-3962,1 52708U 22053BE  22145.58334491 -.00878978  00000-0 -53692-2 0  9991,2 52708  53.2176 262.4691 0001442  36.3157 339.1155 15.78991069  1300,6711.435,91.197,334.26800000000014,332.332,0.0
52708.0,STARLINK-3962,PAYLOAD,2022-05-25 20:00:01,15.78518742,0.0001295,53.2171,261.2222,38.6976,318.4282,-0.005472,-0.00876897,0.0,0 STARLINK-3962,1 52708U 22053BE  22145.83334491 -.00876897  00000-0 -54720-2 0  9990,2 52708  53.2171 261.2222 0001295  38.6976 318.4282 15.78518742  1485,6712.774,91.225,335.5080000000001,333.769,0.0
52708.0,STARLINK-3962,PAYLOAD,2022-05-25 22:00:00,15.78360688,0.0001436,53.2171,260.8058,40.875,70.056,-0.0055119,-0.00877012,0.0,0 STARLINK-3962,1 52708U 22053BE  22145.91667824 -.00877012  00000-0 -55119-2 0  9991,2 52708  53.2171 260.8058 0001436  40.8750  70.0560 15.78360688  1304,6713.222,91.234,336.051,334.1230000000001,0.0
52708.0,STARLINK-3962,PAYLOAD,2022-05-26 14:00:01,15.77102189,0.0001723,53.2172,257.485,31.1326,268.5278,-0.0058358,-0.00877367,0.0,0 STARLINK-3962,1 52708U 22053BE  22146.58334491 -.00877367  00000-0 -58358-2 0  9997,2 52708  53.2172 257.4850 0001723  31.1326 268.5278 15.77102189  1307,6716.793000000002,91.307,339.815,337.501,0.0
52708.0,STARLINK-3962,PAYLOAD,2022-05-26 18:49:09,15.76782991,0.0001599,53.2106,256.4788,50.3926,309.7236,-0.0019209,-0.00304788,0.0,0 STARLINK-3962,1 52708U 22053BE  22146.78414100 -.00304788  00000-0 -19209-2 0  9999,2 52708  53.2106 256.4788 0001599  50.3926 309.7236 15.76782991  1635,6717.699000000001,91.325,340.6380000000001,338.49,0.0
52708.0,STARLINK-3962,PAYLOAD,2022-05-26 22:00:00,15.76472754,0.0001338,53.2173,255.8263,38.7137,354.1774,-0.0059933,-0.00876041,0.0,0 STARLINK-3962,1 52708U 22053BE  22146.91667824 -.00876041  00000-0 -59933-2 0  9991,2 52708  53.2173 255.8263 0001338  38.7137 354.1774 15.76472754  1303,6718.581,91.343,341.344,339.547,0.0
52708.0,STARLINK-3962,PAYLOAD,2022-05-27 04:00:00,15.75998857,0.00015,53.2174,254.582,31.6492,340.6703,-0.0061021,-0.00873656,0.0,0 STARLINK-3962,1 52708U 22053BE  22147.16667824 -.00873656  00000-0 -61021-2 0  9999,2 52708  53.2174 254.5820 0001500  31.6492 340.6703 15.75998857  1696,6719.927,91.371,342.8,340.784,0.0
52708.0,STARLINK-3962,PAYLOAD,2022-05-27 14:00:01,15.75213078,0.000196,53.2175,252.5146,30.149,186.9349,-0.0063243,-0.00874629,0.0,0 STARLINK-3962,1 52708U 22053BE  22147.58334491 -.00874629  00000-0 -63243-2 0  9995,2 52708  53.2175 252.5146 0001960  30.1490 186.9349 15.75213078  1308,6722.1619999999975,91.416,345.344,342.709,0.0
52708.0,STARLINK-3962,PAYLOAD,2022-05-27 22:00:01,15.74585484,0.000156,53.2173,250.8602,34.8121,273.2991,-0.0065206999999999,-0.00876886,0.0,0 STARLINK-3962,1 52708U 22053BE  22147.91668981 -.00876886  00000-0 -65207-2 0  9995,2 52708  53.2173 250.8602 0001560  34.8121 273.2991 15.74585484  1307,6723.948,91.453,346.862,344.764,0.0
52708.0,STARLINK-3962,PAYLOAD,2022-05-28 04:00:00,15.7411044,0.0001519,53.2172,249.6197,36.2359,249.5366,-0.0066183,-0.00872216,0.0,0 STARLINK-3962,1 52708U 22053BE  22148.16667824 -.00872216  00000-0 -66183-2 0  9995,2 52708  53.2172 249.6197 0001519  36.2359 249.5366 15.74110440  1852,6725.301,91.48,348.18699999999984,346.144,0.0
52708.0,STARLINK-3962,PAYLOAD,2022-05-28 12:00:00,15.73301936,0.0001804,53.2172,247.9702,13.3021,2.1318,-0.0010947,-0.00152181,0.0,0 STARLINK-3962,1 52708U 22053BE  22148.50001157 -.00152181  00000-0 -10947-2 0  9993,2 52708  53.2172 247.9702 0001804  13.3021   2.1318 15.73301936  1901,6727.605,91.527,350.68300000000005,348.256,0.0
52708.0,STARLINK-3962,PAYLOAD,2022-05-28 14:00:01,15.73220896,0.0001982,53.2172,247.5583,17.0041,110.7049,-0.00020429,-0.0002921999999999,0.0,0 STARLINK-3962,1 52708U 22053BE  22148.58334491 -.00029220  00000-0 -20429-3 0  9995,2 52708  53.2172 247.5583 0001982  17.0041 110.7049 15.73220896  1300,6727.8359999999975,91.532,351.034,348.367,0.0
52708.0,STARLINK-3962,PAYLOAD,2022-05-28 22:00:00,15.73242069,9.39e-05,53.2162,245.907,18.9557,197.6765,-0.00042682,-0.00060199,0.0,0 STARLINK-3962,1 52708U 22053BE  22148.91667824 -.00060199  00000-0 -42682-3 0  9996,2 52708  53.2162 245.9070 0000939  18.9557 197.6765 15.73242069  1973,6727.775,91.531,350.272,349.0080000000001,0.0
52708.0,STARLINK-3962,PAYLOAD,2022-05-29 12:00:00,15.73252211,0.0001464,53.2147,243.0161,26.3359,255.9183,8.8484e-05,0.00011843,0.0,0 STARLINK-3962,1 52708U 22053BE  22149.50001157  .00011843  00000-0  88484-4 0  9994,2 52708  53.2147 243.0161 0001464  26.3359 255.9183 15.73252211  2066,6727.746,91.53,350.596,348.626,0.0
52708.0,STARLINK-3962,PAYLOAD,2022-05-29 14:00:01,15.73265925,0.0001558,53.2148,242.6041,26.8933,7.6054,-9.7315e-05,-0.00014294,0.0,0 STARLINK-3962,1 52708U 22053BE  22149.58334491 -.00014294  00000-0 -97315-4 0  9990,2 52708  53.2148 242.6041 0001558  26.8933   7.6054 15.73265925  1307,6727.706999999999,91.529,350.62,348.524,0.0
52708.0,STARLINK-3962,PAYLOAD,2022-05-29 21:28:38,15.73340087,1.98e-05,53.2113,241.0593,64.6024,295.5016,0.0007865,0.00111914,0.0,0 STARLINK-3962,1 52708U 22053BE  22149.89489307  .00111914  00000-0  78650-3 0  9996,2 52708  53.2113 241.0593 0000198  64.6024 295.5016 15.73340087  2753,6727.496,91.525,349.494,349.228,0.0
52708.0,STARLINK-3962,PAYLOAD,2022-05-30 04:00:00,15.73258487,0.00015,53.2143,239.7151,40.339,59.907,-0.00034687,-0.0004914,0.0,0 STARLINK-3962,1 52708U 22053BE  22150.16667824 -.00049140  00000-0 -34687-3 0  9995,2 52708  53.2143 239.7151 0001500  40.3390  59.9070 15.73258487  2164,6727.728,91.53,350.603,348.584,0.0
52708.0,STARLINK-3962,PAYLOAD,2022-05-30 12:43:27,15.73113404,0.0001875,53.213,237.9161,10.8048,349.3012,-0.0008118,-0.00112631,0.0,0 STARLINK-3962,1 52708U 22053BE  22150.53018435 -.00112631  00000-0 -81180-3 0  9990,2 52708  53.2130 237.9161 0001875  10.8048 349.3012 15.73113404  2226,6728.142,91.538,351.269,348.746,0.0
52708.0,STARLINK-3962,PAYLOAD,2022-05-30 12:43:29,15.72983478,0.0002177,53.2131,237.9164,44.5924,315.5271,-0.0017484999999999,-0.00237057,0.0,0 STARLINK-3962,1 52708U 22053BE  22150.53020013 -.00237057  00000-0 -17485-2 0  9991,2 52708  53.2131 237.9164 0002177  44.5924 315.5271 15.72983478  2859,6728.513000000001,91.546,351.842,348.913,0.0
52708.0,STARLINK-3962,PAYLOAD,2022-05-30 20:20:51,15.73184828,6.21e-05,53.214,236.3447,75.5131,284.5958,-0.0002076,-0.00029631,0.0,0 STARLINK-3962,1 52708U 22053BE  22150.84781390 -.00029631  00000-0 -20760-3 0  9995,2 52708  53.2140 236.3447 0000621  75.5131 284.5958 15.73184828  2278,6727.938,91.534,350.221,349.386,0.0
52708.0,STARLINK-3962,PAYLOAD,2022-05-30 22:00:00,15.73180237,0.0001644,53.2145,236.005,31.6018,358.7202,8.640299999999999e-05,0.00011512,0.0,0 STARLINK-3962,1 52708U 22053BE  22150.91667824  .00011512  00000-0  86403-4 0  9992,2 52708  53.2145 236.0050 0001644  31.6018 358.7202 15.73180237  1302,6727.9519999999975,91.534,350.923,348.71,0.0
52708.0,STARLINK-3962,PAYLOAD,2022-05-31 04:00:00,15.73167572,0.00016,53.2146,234.7667,35.8012,331.1991,0.00060378,0.00084859,0.0,0 STARLINK-3962,1 52708U 22053BE  22151.16667824  .00084859  00000-0  60378-3 0  9996,2 52708  53.2146 234.7667 0001600  35.8012 331.1991 15.73167572  2324,6727.988,91.535,350.92900000000014,348.776,0.0
52708.0,STARLINK-3962,PAYLOAD,2022-05-31 05:29:44,15.73220566,0.000143,53.2145,234.459,55.6996,304.416,0.00028293,0.00039308,0.0,0 STARLINK-3962,1 52708U 22053BE  22151.22898645  .00039308  00000-0  28293-3 0  9999,2 52708  53.2145 234.4590 0001430  55.6996 304.4160 15.73220566  2961,6727.837,91.532,350.664,348.73900000000015,0.0
52708.0,STARLINK-3962,PAYLOAD,2022-05-31 11:35:40,15.73208229,0.0001917,53.2146,233.2017,32.7478,327.366,0.00027591,0.00038293,0.0,0 STARLINK-3962,1 52708U 22053BE  22151.48310309  .00038293  00000-0  27591-3 0  9995,2 52708  53.2146 233.2017 0001917  32.7478 327.3660 15.73208229  2370,6727.871999999999,91.533,351.026,348.44699999999995,0.0
52708.0,STARLINK-3962,PAYLOAD,2022-05-31 20:44:32,15.73243945,0.0001915,53.2145,231.3152,35.6241,324.4906,0.00029583,0.00041181,0.0,0 STARLINK-3962,1 52708U 22053BE  22151.86426591  .00041181  00000-0  29583-3 0  9991,2 52708  53.2145 231.3152 0001915  35.6241 324.4906 15.73243945  3068,6727.77,91.531,350.923,348.347,0.0
52708.0,STARLINK-3962,PAYLOAD,2022-06-01 04:00:00,15.73198286,0.000154,53.2155,229.8182,29.4481,244.3888,0.0005587,0.00078521,0.0,0 STARLINK-3962,1 52708U 22053BE  22152.16667824  .00078521  00000-0  55870-3 0  9997,2 52708  53.2155 229.8182 0001540  29.4481 244.3888 15.73198286  2486,6727.9,91.533,350.801,348.72900000000016,0.0
